CCSDS_OMM_VERS = 2.0
CREATION_DATE  = 
ORIGINATOR     = 

OBJECT_NAME    = STARLINK-36405
OBJECT_ID      = 2026-036T
CENTER_NAME    = EARTH
REF_FRAME      = TEME
TIME_SYSTEM    = UTC
MEAN_ELEMENT_THEORY = SGP/SGP4

EPOCH          = 2026-03-12T16:00:01.999584
MEAN_MOTION    = 15.66099773
ECCENTRICITY   = .0001426
INCLINATION    = 42.9991
RA_OF_ASC_NODE = 231.6569
ARG_OF_PERICENTER = 270.5393
MEAN_ANOMALY   = 342.2068

EPHEMERIS_TYPE = 0
CLASSIFICATION_TYPE = U
NORAD_CAT_ID   = 67921
ELEMENT_SET_NO = 999
REV_AT_EPOCH   = 412
BSTAR          = -.20796E-1
MEAN_MOTION_DOT = -.1940144E-1
MEAN_MOTION_DDOT = 0

CCSDS_OMM_VERS = 2.0
CREATION_DATE  = 
ORIGINATOR     = 

OBJECT_NAME    = STARLINK-36383
OBJECT_ID      = 2026-036U
CENTER_NAME    = EARTH
REF_FRAME      = TEME
TIME_SYSTEM    = UTC
MEAN_ELEMENT_THEORY = SGP/SGP4

EPOCH          = 2026-03-12T15:58:30.164160
MEAN_MOTION    = 15.82141511
ECCENTRICITY   = .0002032
INCLINATION    = 42.9989
RA_OF_ASC_NODE = 231.3773
ARG_OF_PERICENTER = 286.5593
MEAN_ANOMALY   = 73.5056

EPHEMERIS_TYPE = 0
CLASSIFICATION_TYPE = U
NORAD_CAT_ID   = 67922
ELEMENT_SET_NO = 999
REV_AT_EPOCH   = 414
BSTAR          = .14294E-2
MEAN_MOTION_DOT = .313428E-2
MEAN_MOTION_DDOT = 0

CCSDS_OMM_VERS = 2.0
CREATION_DATE  = 
ORIGINATOR     = 

OBJECT_NAME    = STARLINK-36406
OBJECT_ID      = 2026-036V
CENTER_NAME    = EARTH
REF_FRAME      = TEME
TIME_SYSTEM    = UTC
MEAN_ELEMENT_THEORY = SGP/SGP4

EPOCH          = 2026-03-12T16:00:01.999584
MEAN_MOTION    = 15.61645911
ECCENTRICITY   = .000126
INCLINATION    = 42.9990
RA_OF_ASC_NODE = 231.8084
ARG_OF_PERICENTER = 275.0477
MEAN_ANOMALY   = 276.5405

EPHEMERIS_TYPE = 0
CLASSIFICATION_TYPE = U
NORAD_CAT_ID   = 67923
ELEMENT_SET_NO = 999
REV_AT_EPOCH   = 412
BSTAR          = -.24889E-1
MEAN_MOTION_DOT = -.1942781E-1
MEAN_MOTION_DDOT = 0

CCSDS_OMM_VERS = 2.0
CREATION_DATE  = 
ORIGINATOR     = 

OBJECT_NAME    = STARLINK-36714
OBJECT_ID      = 2026-036W
CENTER_NAME    = EARTH
REF_FRAME      = TEME
TIME_SYSTEM    = UTC
MEAN_ELEMENT_THEORY = SGP/SGP4

EPOCH          = 2026-03-12T16:00:01.999584
MEAN_MOTION    = 15.75428768
ECCENTRICITY   = .0001642
INCLINATION    = 42.9989
RA_OF_ASC_NODE = 231.3993
ARG_OF_PERICENTER = 279.3003
MEAN_ANOMALY   = 76.6490

EPHEMERIS_TYPE = 0
CLASSIFICATION_TYPE = U
NORAD_CAT_ID   = 67924
ELEMENT_SET_NO = 999
REV_AT_EPOCH   = 412
BSTAR          = -.14145E-1
MEAN_MOTION_DOT = -.1919698E-1
MEAN_MOTION_DDOT = 0

CCSDS_OMM_VERS = 2.0
CREATION_DATE  = 
ORIGINATOR     = 

OBJECT_NAME    = STARLINK-36726
OBJECT_ID      = 2026-036X
CENTER_NAME    = EARTH
REF_FRAME      = TEME
TIME_SYSTEM    = UTC
MEAN_ELEMENT_THEORY = SGP/SGP4

EPOCH          = 2026-03-12T16:00:01.999584
MEAN_MOTION    = 15.65867822
ECCENTRICITY   = .0001421
INCLINATION    = 42.9988
RA_OF_ASC_NODE = 231.6214
ARG_OF_PERICENTER = 271.5004
MEAN_ANOMALY   = 355.1401

EPHEMERIS_TYPE = 0
CLASSIFICATION_TYPE = U
NORAD_CAT_ID   = 67925
ELEMENT_SET_NO = 999
REV_AT_EPOCH   = 412
BSTAR          = -.20994E-1
MEAN_MOTION_DOT = -.1940215E-1
MEAN_MOTION_DDOT = 0

CCSDS_OMM_VERS = 2.0
CREATION_DATE  = 
ORIGINATOR     = 

OBJECT_NAME    = STARLINK-36758
OBJECT_ID      = 2026-036Y
CENTER_NAME    = EARTH
REF_FRAME      = TEME
TIME_SYSTEM    = UTC
MEAN_ELEMENT_THEORY = SGP/SGP4

EPOCH          = 2026-03-12T16:00:01.999584
MEAN_MOTION    = 15.72873735
ECCENTRICITY   = .000161
INCLINATION    = 42.9989
RA_OF_ASC_NODE = 231.4204
ARG_OF_PERICENTER = 274.0184
MEAN_ANOMALY   = 73.1526

EPHEMERIS_TYPE = 0
CLASSIFICATION_TYPE = U
NORAD_CAT_ID   = 67926
ELEMENT_SET_NO = 999
REV_AT_EPOCH   = 412
BSTAR          = -.15791E-1
MEAN_MOTION_DOT = -.1955825E-1
MEAN_MOTION_DDOT = 0

CCSDS_OMM_VERS = 2.0
CREATION_DATE  = 
ORIGINATOR     = 

OBJECT_NAME    = STARLINK-36728
OBJECT_ID      = 2026-036Z
CENTER_NAME    = EARTH
REF_FRAME      = TEME
TIME_SYSTEM    = UTC
MEAN_ELEMENT_THEORY = SGP/SGP4

EPOCH          = 2026-03-12T16:00:01.999584
MEAN_MOTION    = 15.76309876
ECCENTRICITY   = .0001569
INCLINATION    = 42.9991
RA_OF_ASC_NODE = 231.3443
ARG_OF_PERICENTER = 275.6828
MEAN_ANOMALY   = 101.9979

EPHEMERIS_TYPE = 0
CLASSIFICATION_TYPE = U
NORAD_CAT_ID   = 67927
ELEMENT_SET_NO = 999
REV_AT_EPOCH   = 412
BSTAR          = -.13675E-1
MEAN_MOTION_DOT = -.1928762E-1
MEAN_MOTION_DDOT = 0

CCSDS_OMM_VERS = 2.0
CREATION_DATE  = 
ORIGINATOR     = 

OBJECT_NAME    = STARLINK-36771
OBJECT_ID      = 2026-036AA
CENTER_NAME    = EARTH
REF_FRAME      = TEME
TIME_SYSTEM    = UTC
MEAN_ELEMENT_THEORY = SGP/SGP4

EPOCH          = 2026-03-12T16:00:01.999584
MEAN_MOTION    = 15.74546904
ECCENTRICITY   = .0001647
INCLINATION    = 42.9991
RA_OF_ASC_NODE = 231.3797
ARG_OF_PERICENTER = 274.2261
MEAN_ANOMALY   = 89.1863

EPHEMERIS_TYPE = 0
CLASSIFICATION_TYPE = U
NORAD_CAT_ID   = 67928
ELEMENT_SET_NO = 999
REV_AT_EPOCH   = 412
BSTAR          = -.1472E-1
MEAN_MOTION_DOT = -.1921098E-1
MEAN_MOTION_DDOT = 0

CCSDS_OMM_VERS = 2.0
CREATION_DATE  = 
ORIGINATOR     = 

OBJECT_NAME    = STARLINK-36809
OBJECT_ID      = 2026-036AB
CENTER_NAME    = EARTH
REF_FRAME      = TEME
TIME_SYSTEM    = UTC
MEAN_ELEMENT_THEORY = SGP/SGP4

EPOCH          = 2026-03-12T16:00:01.999584
MEAN_MOTION    = 15.74573233
ECCENTRICITY   = .0001595
INCLINATION    = 42.9991
RA_OF_ASC_NODE = 231.3576
ARG_OF_PERICENTER = 275.5068
MEAN_ANOMALY   = 96.6063

EPHEMERIS_TYPE = 0
CLASSIFICATION_TYPE = U
NORAD_CAT_ID   = 67929
ELEMENT_SET_NO = 999
REV_AT_EPOCH   = 412
BSTAR          = -.14731E-1
MEAN_MOTION_DOT = -.1924165E-1
MEAN_MOTION_DDOT = 0

CCSDS_OMM_VERS = 2.0
CREATION_DATE  = 
ORIGINATOR     = 

OBJECT_NAME    = STARLINK-36865
OBJECT_ID      = 2026-036AC
CENTER_NAME    = EARTH
REF_FRAME      = TEME
TIME_SYSTEM    = UTC
MEAN_ELEMENT_THEORY = SGP/SGP4

EPOCH          = 2026-03-11T21:37:51.132864
MEAN_MOTION    = 15.82119378
ECCENTRICITY   = .0001705
INCLINATION    = 42.9989
RA_OF_ASC_NODE = 235.9642
ARG_OF_PERICENTER = 284.8141
MEAN_ANOMALY   = 75.2541

EPHEMERIS_TYPE = 0
CLASSIFICATION_TYPE = U
NORAD_CAT_ID   = 67930
ELEMENT_SET_NO = 999
REV_AT_EPOCH   = 402
BSTAR          = .14033E-2
MEAN_MOTION_DOT = .307168E-2
MEAN_MOTION_DDOT = 0

CCSDS_OMM_VERS = 2.0
CREATION_DATE  = 
ORIGINATOR     = 

OBJECT_NAME    = STARLINK-36781
OBJECT_ID      = 2026-036AD
CENTER_NAME    = EARTH
REF_FRAME      = TEME
TIME_SYSTEM    = UTC
MEAN_ELEMENT_THEORY = SGP/SGP4

EPOCH          = 2026-03-11T21:38:56.274144
MEAN_MOTION    = 15.82056264
ECCENTRICITY   = .0001984
INCLINATION    = 42.9990
RA_OF_ASC_NODE = 235.9718
ARG_OF_PERICENTER = 261.7679
MEAN_ANOMALY   = 98.2968

EPHEMERIS_TYPE = 0
CLASSIFICATION_TYPE = U
NORAD_CAT_ID   = 67931
ELEMENT_SET_NO = 999
REV_AT_EPOCH   = 402
BSTAR          = .81424E-3
MEAN_MOTION_DOT = .174753E-2
MEAN_MOTION_DDOT = 0

CCSDS_OMM_VERS = 2.0
CREATION_DATE  = 
ORIGINATOR     = 

OBJECT_NAME    = STARLINK-36301
OBJECT_ID      = 2026-037A
CENTER_NAME    = EARTH
REF_FRAME      = TEME
TIME_SYSTEM    = UTC
MEAN_ELEMENT_THEORY = SGP/SGP4

EPOCH          = 2026-03-12T16:08:21.300000
MEAN_MOTION    = 15.82116545
ECCENTRICITY   = .0001662
INCLINATION    = 42.9975
RA_OF_ASC_NODE = 180.2975
ARG_OF_PERICENTER = 276.7350
MEAN_ANOMALY   = 83.3333

EPHEMERIS_TYPE = 0
CLASSIFICATION_TYPE = U
NORAD_CAT_ID   = 67932
ELEMENT_SET_NO = 999
REV_AT_EPOCH   = 372
BSTAR          = .12878E-2
MEAN_MOTION_DOT = .280924E-2
MEAN_MOTION_DDOT = 0

