STARLINK-36405          
1 67921U 26036T   26071.66668981 -.01940144  00000+0 -20796-1 0  9997
2 67921  42.9991 231.6569 0001426 270.5393 342.2068 15.66099773  4120
STARLINK-36383          
1 67922U 26036U   26071.66562690  .00313428  00000+0  14294-2 0  9991
2 67922  42.9989 231.3773 0002032 286.5593  73.5056 15.82141511  4144
STARLINK-36406          
1 67923U 26036V   26071.66668981 -.01942781  00000+0 -24889-1 0  9995
2 67923  42.9990 231.8084 0001260 275.0477 276.5405 15.61645911  4124
STARLINK-36714          
1 67924U 26036W   26071.66668981 -.01919698  00000+0 -14145-1 0  9991
2 67924  42.9989 231.3993 0001642 279.3003  76.6490 15.75428768  4120
STARLINK-36726          
1 67925U 26036X   26071.66668981 -.01940215  00000+0 -20994-1 0  9990
2 67925  42.9988 231.6214 0001421 271.5004 355.1401 15.65867822  4123
STARLINK-36758          
1 67926U 26036Y   26071.66668981 -.01955825  00000+0 -15791-1 0  9993
2 67926  42.9989 231.4204 0001610 274.0184  73.1526 15.72873735  4122
STARLINK-36728          
1 67927U 26036Z   26071.66668981 -.01928762  00000+0 -13675-1 0  9993
2 67927  42.9991 231.3443 0001569 275.6828 101.9979 15.76309876  4121
STARLINK-36771          
1 67928U 26036AA  26071.66668981 -.01921098  00000+0 -14720-1 0  9991
2 67928  42.9991 231.3797 0001647 274.2261  89.1863 15.74546904  4129
STARLINK-36809          
1 67929U 26036AB  26071.66668981 -.01924165  00000+0 -14731-1 0  9992
2 67929  42.9991 231.3576 0001595 275.5068  96.6063 15.74573233  4126
STARLINK-36865          
1 67930U 26036AC  26070.90128626  .00307168  00000+0  14033-2 0  9998
2 67930  42.9989 235.9642 0001705 284.8141  75.2541 15.82119378  4025
STARLINK-36781          
1 67931U 26036AD  26070.90204021  .00174753  00000+0  81424-3 0  9994
2 67931  42.9990 235.9718 0001984 261.7679  98.2968 15.82056264  4023
STARLINK-36301          
1 67932U 26037A   26071.67246875  .00280924  00000+0  12878-2 0  9998
2 67932  42.9975 180.2975 0001662 276.7350  83.3333 15.82116545  3725
